[
    {
        "Altitude(m)": 607897.6349586593,
        "Argument of Periapsis(deg)": 0.0,
        "Eccentricity": 0.0,
        "Inclination(deg)": 60.0,
        "Latitude(deg)": -14.293049108321165,
        "Longitude(deg)": -28.381220485055515,
        "Mean Anomaly(deg)": -16.363600000000023,
        "RAAN(deg)": 80.0,
        "Satellite Name": "Test1 373",
        "Satellite Number": 373,
        "Semi-Major Axis(m)": 6980739.136638005,
        "Time(s)": 0
    },
    {
        "Altitude(m)": 607750.8354618293,
        "Argument of Periapsis(deg)": 0.00010418945913296404,
        "Eccentricity": 0.0,
        "Inclination(deg)": 60.0,
        "Latitude(deg)": -13.758890027746222,
        "Longitude(deg)": -28.094152368478404,
        "Mean Anomaly(deg)": -15.743493854538185,
        "RAAN(deg)": 79.99957995086025,
        "Satellite Name": "Test1 373",
        "Satellite Number": 373,
        "Semi-Major Axis(m)": 6980739.136638005,
        "Time(s)": 10
    }
]